HAWK-5A                 
1 52757U 22057AB  26157.39988342  .00026411  00000+0  45547-3 0  9990
2 52757  97.6593 315.5555 0005971 110.7572 249.4320 15.51002045224679
HAWK-6B                 
1 55324U 23011A   26157.42825774  .00005468  00000+0  23683-3 0  9993
2 55324  40.4987  54.8210 0004132 303.4961  56.5453 15.22833664186204
HAWK-6C                 
1 55326U 23011C   26157.42761563  .00005275  00000+0  22874-3 0  9997
2 55326  40.4981  51.6633 0004637 292.8717  67.1603 15.22837856186217
HAWK-6A                 
1 55327U 23011D   26157.42764580  .00005594  00000+0  24211-3 0  9991
2 55327  40.4987  53.2869 0004295 292.3056  67.7298 15.22834948186219
HAWK-7A                 
1 56191U 23054P   26157.16901137  .00001899  00000+0  73812-4 0  9996
2 56191  97.2706  44.7867 0005504  90.7477 269.4393 15.27232559175346
HAWK-7B                 
1 56193U 23054R   26157.62756912  .00006784  00000+0  25670-3 0  9994
2 56193  97.2735  43.4932 0004047  90.1925 269.9778 15.27251711175413
HAWK-7C                 
1 56200U 23054Y   26157.62745346  .00006735  00000+0  25487-3 0  9994
2 56200  97.2713  44.2651 0004169  82.3037 277.8676 15.27249143175418
