OBJECT_NAME,OBJECT_ID,EPOCH,MEAN_MOTION,ECCENTRICITY,INCLINATION,RA_OF_ASC_NODE,ARG_OF_PERICENTER,MEAN_ANOMALY,EPHEMERIS_TYPE,CLASSIFICATION_TYPE,NORAD_CAT_ID,ELEMENT_SET_NO,REV_AT_EPOCH,BSTAR,MEAN_MOTION_DOT,MEAN_MOTION_DDOT
HAWK-5A,2022-057AB,2026-06-06T09:35:49.927488,15.51002045,.00059718,97.6593,315.5555,110.7572,249.4320,0,U,52757,999,22467,.45546809E-3,.26411E-3,0
HAWK-6B,2023-011A,2026-06-06T10:16:41.468736,15.22833664,.00041321,40.4987,54.8210,303.4961,56.5453,0,U,55324,999,18620,.23682831E-3,.5468E-4,0
HAWK-6C,2023-011C,2026-06-06T10:15:45.990432,15.22837856,.00046375,40.4981,51.6633,292.8717,67.1603,0,U,55326,999,18621,.22873907E-3,.5275E-4,0
HAWK-6A,2023-011D,2026-06-06T10:15:48.597120,15.22834948,.00042951,40.4987,53.2869,292.3056,67.7298,0,U,55327,999,18621,.24210657E-3,.5594E-4,0
HAWK-7A,2023-054P,2026-06-06T04:03:22.582368,15.27232559,.0005504,97.2706,44.7867,90.7477,269.4393,0,U,56191,999,17534,.73812E-4,.1899E-4,0
HAWK-7B,2023-054R,2026-06-06T15:03:41.971968,15.27251711,.0004047,97.2735,43.4932,90.1925,269.9778,0,U,56193,999,17541,.2567E-3,.6784E-4,0
HAWK-7C,2023-054Y,2026-06-06T15:03:31.978944,15.27249143,.0004169,97.2713,44.2651,82.3037,277.8676,0,U,56200,999,17541,.25487E-3,.6735E-4,0
